ONEWEB-0401             
1 50481U 21132N   23225.15043026  .00000062  00000+0  12532-3 0  9995
2 50481  87.9274 182.0262 0001631  80.0168 280.1148 13.18685573 85950
ONEWEB-0402             
1 50482U 21132P   23225.79958275  .00000055  00000+0  10694-3 0  9996
2 50482  87.9281 181.9425 0001624  95.6693 264.4624 13.18686065 86069
ONEWEB-0403             
1 50483U 21132Q   23225.13986646 -.00000210  00000+0 -56627-3 0  9999
2 50483  87.9254 182.0420 0001878  74.3349 285.7990 13.18685011 85937
ONEWEB-0404             
1 50484U 21132R   23226.00866066  .00000334  00000+0  90621-3 0  9997
2 50484  87.8886 227.2736 0001927  67.1337 292.9994 13.11416573 80894
ONEWEB-0405             
1 50485U 21132S   23225.33484105  .00000083  00000+0  17807-3 0  9999
2 50485  87.9276 181.9902 0001519  81.3037 278.8267 13.18687925 86364
ONEWEB-0406             
1 50486U 21132T   23226.13047703 -.00000266  00000+0 -70870-3 0  9992
2 50486  87.9274 181.8330 0002109  65.7715 294.3637 13.18685649 86109
ONEWEB-0407             
1 50487U 21132U   23225.13777798  .00000078  00000+0  16538-3 0  9996
2 50487  87.9272 182.0366 0001878  77.8451 282.2891 13.18687369 85910
ONEWEB-0409             
1 50488U 21132V   23225.47248098  .00000264  00000+0  71011-3 0  9994
2 50488  87.8887 227.3961 0002387  73.2457 286.8933 13.11414467 80729
